QIANFAN-1               
1 60379U 24140A   25275.96105498  .00000095  00000+0  12881-3 0  9995
2 60379  88.9759 306.6207 0019324  63.3405 296.9723 13.50975040 57797
QIANFAN-2               
1 60380U 24140B   25275.91570292  .00000094  00000+0  12638-3 0  9999
2 60380  88.9745 306.4745 0013908  40.0573 320.1601 13.50967226 57847
QIANFAN-3               
1 60381U 24140C   25275.99805403  .00000112  00000+0  15462-3 0  9992
2 60381  88.9739 306.6038 0015390  50.7041 309.5473 13.50967361 57762
QIANFAN-4               
1 60382U 24140D   25275.97339618  .00000088  00000+0  11754-3 0  9993
2 60382  88.9763 306.4862 0014221  42.1486 318.0756 13.50974311 57888
QIANFAN-5               
1 60383U 24140E   25275.94870368  .00000102  00000+0  13854-3 0  9993
2 60383  88.9738 306.6345 0016930  60.4401 299.8436 13.50970418 57748
QIANFAN-6               
1 60384U 24140F   25275.96932528  .00000073  00000+0  93805-4 0  9995
2 60384  88.9765 306.3597 0014507  47.4471 312.7902 13.50971875 57948
QIANFAN-7               
1 60385U 24140G   25275.95120243  .00000751  00000+0  29952-3 0  9992
2 60385  88.9768 302.0528 0012547 273.9323  86.0436 14.27568058 60298
QIANFAN-8               
1 60386U 24140H   25275.97749097  .00000093  00000+0  12591-3 0  9999
2 60386  88.9767 306.5952 0018009  48.0789 312.1895 13.50970069 57791
